[{"OBJECT_NAME":"SCS-01 A","OBJECT_ID":"2025-100A","EPOCH":"2026-03-09T23:34:52.624992","MEAN_MOTION":15.20882651,"ECCENTRICITY":0.0023898,"INCLINATION":97.374,"RA_OF_ASC_NODE":143.9086,"ARG_OF_PERICENTER":335.0117,"MEAN_ANOMALY":24.996,"EPHEMERIS_TYPE":0,"CLASSIFICATION_TYPE":"U","NORAD_CAT_ID":63982,"ELEMENT_SET_NO":999,"REV_AT_EPOCH":4556,"BSTAR":0.000529729,"MEAN_MOTION_DOT":0.00011735,"MEAN_MOTION_DDOT":0},{"OBJECT_NAME":"OKEAN-2","OBJECT_ID":"1990-018A","EPOCH":"2026-03-09T23:36:10.183680","MEAN_MOTION":15.15649196,"ECCENTRICITY":0.00049727,"INCLINATION":82.5017,"RA_OF_ASC_NODE":331.5686,"ARG_OF_PERICENTER":303.4328,"MEAN_ANOMALY":67.9927,"EPHEMERIS_TYPE":0,"CLASSIFICATION_TYPE":"U","NORAD_CAT_ID":20510,"ELEMENT_SET_NO":999,"REV_AT_EPOCH":93903,"BSTAR":0.00028442133,"MEAN_MOTION_DOT":5.437e-5,"MEAN_MOTION_DDOT":0}]
